NORAD_CAT_ID,OBJECT_NAME,OBJECT_TYPE,EPOCH,MEAN_MOTION,ECCENTRICITY,INCLINATION,RA_OF_ASC_NODE,ARG_OF_PERICENTER,MEAN_ANOMALY,BSTAR,MEAN_MOTION_DOT,MEAN_MOTION_DDOT,TLE_LINE0,TLE_LINE1,TLE_LINE2,SEMIMAJOR_AXIS,PERIOD,APOGEE,PERIGEE,DECAYED
53860.0,STARLINK-4799,PAYLOAD,2023-06-14 05:10:58,15.08849099,0.0001328,53.2166,91.0484,88.7881,271.3263,2.0943e-05,4.5e-07,0.0,0 STARLINK-4799,1 53860U 22114AU  23165.21595461  .00000045  00000-0  20943-4 0  9993,2 53860  53.2166  91.0484 0001328  88.7881 271.3263 15.08849099 41683,6917.853,95.437,540.636,538.799,0.0
53860.0,STARLINK-4799,PAYLOAD,2023-06-14 19:29:27,15.08831949,0.0001225,53.2161,88.3697,88.6498,271.4635,4.297e-05,3.96e-06,0.0,0 STARLINK-4799,1 53860U 22114AU  23165.81212644  .00000396  00000-0  42970-4 0  9991,2 53860  53.2161  88.3697 0001225  88.6498 271.4635 15.08831949 42075,6917.905,95.438,540.617,538.923,0.0
53860.0,STARLINK-4799,PAYLOAD,2023-06-15 01:50:59,15.08837556,0.0001467,53.2166,87.1831,101.0606,259.0551,9.0679e-05,1.155e-05,0.0,0 STARLINK-4799,1 53860U 22114AU  23166.07708250  .00001155  00000-0  90679-4 0  9996,2 53860  53.2166  87.1831 0001467 101.0606 259.0551 15.08837556 41816,6917.888,95.438,540.768,538.738,0.0
53860.0,STARLINK-4799,PAYLOAD,2023-06-16 11:14:05,15.08849625,0.0001143,53.2173,80.9382,93.3034,266.8089,0.00010198,1.336e-05,0.0,0 STARLINK-4799,1 53860U 22114AU  23167.46811675  .00001336  00000-0  10198-3 0  9994,2 53860  53.2173  80.9382 0001143  93.3034 266.8089 15.08849625 42324,6917.851,95.437,540.507,538.925,0.0
53860.0,STARLINK-4799,PAYLOAD,2023-06-16 17:35:38,15.08830064,0.0001186,53.2176,79.7491,103.2098,256.9026,0.00039924,6.07e-05,0.0,0 STARLINK-4799,1 53860U 22114AU  23167.73308504  .00006070  00000-0  39924-3 0  9994,2 53860  53.2176  79.7491 0001186 103.2098 256.9026 15.08830064 42364,6917.911,95.438,540.596,538.955,0.0
53860.0,STARLINK-4799,PAYLOAD,2023-06-17 11:04:52,15.08834409,9.76e-05,53.2171,76.4776,97.9544,262.1559,-3.6466e-05,-8.68e-06,0.0,0 STARLINK-4799,1 53860U 22114AU  23168.46172210 -.00000868  00000-0 -36466-4 0  9998,2 53860  53.2171  76.4776 0000976  97.9544 262.1559 15.08834409 42479,6917.897,95.438,540.438,539.087,0.0
53860.0,STARLINK-4799,PAYLOAD,2023-06-17 17:26:25,15.08831135,0.0001517,53.2169,75.2882,89.1842,270.9324,-0.00015596,-2.769e-05,0.0,0 STARLINK-4799,1 53860U 22114AU  23168.72668742 -.00002769  00000-0 -15596-3 0  9999,2 53860  53.2169  75.2882 0001517  89.1842 270.9324 15.08831135 42219,6917.907,95.438,540.822,538.723,0.0
53860.0,STARLINK-4799,PAYLOAD,2023-06-18 10:55:40,15.08830772,0.0001156,53.2169,72.0169,94.8555,265.257,-7.9658e-05,-1.555e-05,0.0,0 STARLINK-4799,1 53860U 22114AU  23169.45533224 -.00001555  00000-0 -79658-4 0  9998,2 53860  53.2169  72.0169 0001156  94.8555 265.2570 15.08830772 42626,6917.909,95.438,540.573,538.974,0.0
53860.0,STARLINK-4799,PAYLOAD,2023-06-18 17:17:12,15.08841407,0.0001125,53.2169,70.827,94.4719,265.6401,0.00013378,1.842e-05,0.0,0 STARLINK-4799,1 53860U 22114AU  23169.72028724  .00001842  00000-0  13378-3 0  9995,2 53860  53.2169  70.8270 0001125  94.4719 265.6401 15.08841407 42364,6917.876,95.437,540.519,538.963,0.0
53860.0,STARLINK-4799,PAYLOAD,2023-06-19 02:49:31,15.08857116,0.0001058,53.2165,69.0423,103.9577,256.1533,0.00071589,0.00011129,0.0,0 STARLINK-4799,1 53860U 22114AU  23170.11772422  .00011129  00000-0  71589-3 0  9998,2 53860  53.2165  69.0423 0001058 103.9577 256.1533 15.08857116 42425,6917.828,95.436,540.425,538.961,0.0
53860.0,STARLINK-4799,PAYLOAD,2023-06-20 02:40:18,15.08859765,9.86e-05,53.2165,64.5825,94.2419,265.8686,0.00089679,0.00014021,0.0,0 STARLINK-4799,1 53860U 22114AU  23171.11132508  .00014021  00000-0  89679-3 0  9997,2 53860  53.2165  64.5825 0000986  94.2419 265.8686 15.08859765 42571,6917.82,95.436,540.367,539.003,0.0
53860.0,STARLINK-4799,PAYLOAD,2023-06-20 16:58:47,15.08841734,0.0001443,53.2167,61.8997,107.966,252.149,0.00050346,7.734e-05,0.0,0 STARLINK-4799,1 53860U 22114AU  23171.70748858  .00007734  00000-0  50346-3 0  9995,2 53860  53.2167  61.8997 0001443 107.9660 252.1490 15.08841734 42661,6917.875,95.437,540.738,538.742,0.0
53860.0,STARLINK-4799,PAYLOAD,2023-06-20 20:09:33,15.08840741,0.0001258,53.2166,61.3114,98.9369,261.1765,0.00021539,3.142e-05,0.0,0 STARLINK-4799,1 53860U 22114AU  23171.83996877  .00003142  00000-0  21539-3 0  9996,2 53860  53.2166  61.3114 0001258  98.9369 261.1765 15.08840741 42982,6917.878,95.438,540.613,538.873,0.0
53860.0,STARLINK-4799,PAYLOAD,2023-06-20 23:20:19,15.08845807,0.0001033,53.2167,60.7163,90.701,269.4101,0.00013214,1.816e-05,0.0,0 STARLINK-4799,1 53860U 22114AU  23171.97244689  .00001816  00000-0  13214-3 0  9995,2 53860  53.2167  60.7163 0001033  90.7010 269.4101 15.08845807 43001,6917.863,95.437,540.442,539.013,0.0
53860.0,STARLINK-4799,PAYLOAD,2023-06-21 20:00:20,15.08838044,0.0001109,53.2168,56.8514,84.715,275.3969,4.4008e-05,4.13e-06,0.0,0 STARLINK-4799,1 53860U 22114AU  23172.83357126  .00000413  00000-0  44008-4 0  9990,2 53860  53.2168  56.8514 0001109  84.7150 275.3969 15.08838044 43137,6917.886,95.438,540.519,538.984,0.0
53860.0,STARLINK-4799,PAYLOAD,2023-06-22 00:46:29,15.08842685,0.0001146,53.2174,55.9597,89.2766,270.8357,9.8107e-05,1.274e-05,0.0,0 STARLINK-4799,1 53860U 22114AU  23173.03228948  .00001274  00000-0  98107-4 0  9997,2 53860  53.2174  55.9597 0001146  89.2766 270.8357 15.08842685 42865,6917.872,95.437,540.53,538.944,0.0
53860.0,STARLINK-4799,PAYLOAD,2023-06-23 08:34:12,15.08846682,0.0001018,53.2166,50.0084,79.9853,280.1254,0.00017189,2.449e-05,0.0,0 STARLINK-4799,1 53860U 22114AU  23174.35708580  .00002449  00000-0  17189-3 0  9993,2 53860  53.2166  50.0084 0001018  79.9853 280.1254 15.08846682 43068,6917.86,95.437,540.429,539.021,0.0
53860.0,STARLINK-4799,PAYLOAD,2023-06-24 00:28:03,15.08841207,0.0001221,53.2176,47.0406,94.5809,265.5322,7.9418e-05,9.76e-06,0.0,0 STARLINK-4799,1 53860U 22114AU  23175.01948939  .00000976  00000-0  79418-4 0  9998,2 53860  53.2176  47.0406 0001221  94.5809 265.5322 15.08841207 43165,6917.877,95.437,540.586,538.897,0.0
53860.0,STARLINK-4799,PAYLOAD,2023-06-25 14:37:19,15.08839752,0.0001448,53.2164,39.9039,76.9762,283.1392,0.00017693,2.529e-05,0.0,0 STARLINK-4799,1 53860U 22114AU  23176.60925535  .00002529  00000-0  17693-3 0  9993,2 53860  53.2164  39.9039 0001448  76.9762 283.1392 15.08839752 43409,6917.881,95.438,540.748,538.744,0.0
53860.0,STARLINK-4799,PAYLOAD,2023-06-26 14:28:06,15.08837884,0.0001266,53.2163,35.4408,80.4476,279.6659,0.0001271,1.735e-05,0.0,0 STARLINK-4799,1 53860U 22114AU  23177.60285766  .00001735  00000-0  12710-3 0  9992,2 53860  53.2163  35.4408 0001266  80.4476 279.6659 15.08837884 43555,6917.887,95.438,540.628,538.876,0.0
53860.0,STARLINK-4799,PAYLOAD,2023-06-27 20:40:26,15.08849386,0.0001076,53.2171,29.7917,81.8227,278.2887,0.00023784,3.5e-05,0.0,0 STARLINK-4799,1 53860U 22114AU  23178.86141273  .00003500  00000-0  23784-3 0  9990,2 53860  53.2171  29.7917 0001076  81.8227 278.2887 15.08849386 43742,6917.852,95.437,540.461,538.972,0.0
53860.0,STARLINK-4799,PAYLOAD,2023-06-28 22:06:35,15.08855839,0.0001249,53.2176,25.0294,103.5159,256.5972,0.000201,2.914e-05,0.0,0 STARLINK-4799,1 53860U 22114AU  23179.92124279  .00002914  00000-0  20100-3 0  9992,2 53860  53.2176  25.0294 0001249 103.5159 256.5972 15.08855839 43904,6917.832,95.437,540.561,538.833,0.0
53860.0,STARLINK-4799,PAYLOAD,2023-06-29 18:46:37,15.08837357,0.00016,53.2175,21.1699,74.4857,285.6311,-0.00030466,-5.133e-05,0.0,0 STARLINK-4799,1 53860U 22114AU  23180.78237362 -.00005133  00000-0 -30466-3 0  9990,2 53860  53.2175  21.1699 0001600  74.4857 285.6311 15.08837357 44031,6917.888,95.438,540.86,538.647,0.0
53860.0,STARLINK-4799,PAYLOAD,2023-06-30 21:48:10,15.08842079,9.3e-05,53.2173,16.1124,83.1595,276.9503,3.3769e-05,2.5e-06,0.0,0 STARLINK-4799,1 53860U 22114AU  23181.90845181  .00000250  00000-0  33769-4 0  9992,2 53860  53.2173  16.1124 0000930  83.1595 276.9503 15.08842079 44209,6917.874,95.437,540.382,539.096,0.0
53860.0,STARLINK-4799,PAYLOAD,2023-07-01 18:28:11,15.08833501,9.75e-05,53.2175,12.2475,75.3238,284.7862,0.00019205,2.769e-05,0.0,0 STARLINK-4799,1 53860U 22114AU  23182.76958251  .00002769  00000-0  19205-3 0  9995,2 53860  53.2175  12.2475 0000975  75.3238 284.7862 15.08833501 44332,6917.9,95.438,540.44,539.091,0.0
53860.0,STARLINK-4799,PAYLOAD,2023-07-01 23:14:21,15.08841512,9.69e-05,53.2172,11.3552,75.4167,284.6933,0.00022162,3.241e-05,0.0,0 STARLINK-4799,1 53860U 22114AU  23182.96829937  .00003241  00000-0  22162-3 0  9997,2 53860  53.2172  11.3552 0000969  75.4167 284.6933 15.08841512 44362,6917.876,95.437,540.411,539.07,0.0
53860.0,STARLINK-4799,PAYLOAD,2023-07-02 11:57:26,15.08838388,0.0001019,53.2173,8.9769,76.1617,283.9489,9.2642e-05,1.187e-05,0.0,0 STARLINK-4799,1 53860U 22114AU  23183.49822155  .00001187  00000-0  92642-4 0  9999,2 53860  53.2173   8.9769 0001019  76.1617 283.9489 15.08838388 44444,6917.885,95.438,540.455,539.045,0.0
53860.0,STARLINK-4799,PAYLOAD,2023-07-03 18:09:45,15.08842496,9e-05,53.2168,3.3256,85.6485,274.461,0.00011324,1.515e-05,0.0,0 STARLINK-4799,1 53860U 22114AU  23184.75678047  .00001515  00000-0  11324-3 0  9990,2 53860  53.2168   3.3256 0000900  85.6485 274.4610 15.08842496 44631,6917.873,95.437,540.36,539.115,0.0
53860.0,STARLINK-4799,PAYLOAD,2023-07-04 21:11:19,15.08845398,8.59e-05,53.2159,358.2698,81.2267,278.8823,0.00012355,1.679e-05,0.0,0 STARLINK-4799,1 53860U 22114AU  23185.88285956  .00001679  00000-0  12355-3 0  9994,2 53860  53.2159 358.2698 0000859  81.2267 278.8823 15.08845398 44803,6917.864,95.437,540.323,539.135,0.0
53860.0,STARLINK-4799,PAYLOAD,2023-07-05 17:51:20,15.08836307,9.22e-05,53.2157,354.4024,88.6098,271.5,8.6824e-05,1.094e-05,0.0,0 STARLINK-4799,1 53860U 22114AU  23186.74398711  .00001094  00000-0  86824-4 0  9998,2 53860  53.2157 354.4024 0000922  88.6098 271.5000 15.08836307 44937,6917.892,95.438,540.395,539.119,0.0
